NORAD_CAT_ID,OBJECT_NAME,OBJECT_TYPE,EPOCH,MEAN_MOTION,ECCENTRICITY,INCLINATION,RA_OF_ASC_NODE,ARG_OF_PERICENTER,MEAN_ANOMALY,BSTAR,MEAN_MOTION_DOT,MEAN_MOTION_DDOT,TLE_LINE0,TLE_LINE1,TLE_LINE2,SEMIMAJOR_AXIS,PERIOD,APOGEE,PERIGEE,DECAYED
55651.0,STARLINK-5506,PAYLOAD,2024-08-21 04:41:08,14.98338643,0.0002679,70.0007,170.3586,260.2472,99.8385,6.7459e-05,7.12e-06,0.0,0 STARLINK-5506,1 55651U 23021Z   24234.19523553  .00000712  00000-0  67459-4 0  9993,2 55651  70.0007 170.3586 0002679 260.2472  99.8385 14.98338643 83782,6950.166,96.106,573.893,570.169,0.0
55651.0,STARLINK-5506,PAYLOAD,2024-08-21 06:17:16,14.98338426,0.0002683,70.0007,170.19,261.5757,98.5098,6.5472e-05,6.88e-06,0.0,0 STARLINK-5506,1 55651U 23021Z   24234.26199546  .00000688  00000-0  65472-4 0  9997,2 55651  70.0007 170.1900 0002683 261.5757  98.5098 14.98338426 84096,6950.167,96.106,573.897,570.167,0.0
55651.0,STARLINK-5506,PAYLOAD,2024-08-21 20:42:29,14.98327027,0.0002595,70.0008,168.6747,263.3289,96.7575,1.7343e-05,1.14e-06,0.0,0 STARLINK-5506,1 55651U 23021Z   24234.86284281  .00000114  00000-0  17343-4 0  9992,2 55651  70.0008 168.6747 0002595 263.3289  96.7575 14.98327027 83881,6950.202,96.107,573.871,570.264,0.0
